start=new Date('2022-10-25T00:00:00.000Z').valueOf();
sats=[{"SITE":"AFETR","TLE_LINE2":"2 52103  53.2171 209.4111 0001729  59.8872 300.2291 15.08833645 34803","EPOCH":"2022-10-24T18:29:56.124672","FILE":"3631857","PERIOD":"95.438","RA_OF_ASC_NODE":"209.4111","ELEMENT_SET_NO":"999","ARG_OF_PERICENTER":"59.8872","MEAN_MOTION_DDOT":"0.0000000000000","OBJECT_TYPE":"PAYLOAD","COUNTRY_CODE":"US","NORAD_CAT_ID":"52103","OBJECT_NAME":"STARLINK-3705","RCS_SIZE":"LARGE","MEAN_MOTION_DOT":"-0.00002561","CENTER_NAME":"EARTH","BSTAR":"-0.00014287000000","PERIAPSIS":"538.569","GP_ID":"216072787","CLASSIFICATION_TYPE":"U","MEAN_ELEMENT_THEORY":"SGP4","MEAN_ANOMALY":"300.2291","TIME_SYSTEM":"UTC","REF_FRAME":"TEME","SEMIMAJOR_AXIS":"6917.900","INCLINATION":"53.2171","ECCENTRICITY":"0.00017290","TLE_LINE1":"1 52103U 22029R   22297.77078848 -.00002561  00000-0 -14287-3 0  9998","LAUNCH_DATE":"2022-03-19","DECAY_DATE":null,"EPHEMERIS_TYPE":"0","MEAN_MOTION":"15.08833645","OBJECT_ID":"2022-029R","REV_AT_EPOCH":"3480","APOAPSIS":"540.961"},{"MEAN_MOTION_DOT":"-0.00000334","OBJECT_NAME":"STARLINK-3706","NORAD_CAT_ID":"52105","RCS_SIZE":"LARGE","COUNTRY_CODE":"US","OBJECT_TYPE":"PAYLOAD","MEAN_MOTION_DDOT":"0.0000000000000","ARG_OF_PERICENTER":"43.0095","RA_OF_ASC_NODE":"212.1160","ELEMENT_SET_NO":"999","FILE":"3631438","PERIOD":"95.437","EPOCH":"2022-10-24T04:02:13.049376","TLE_LINE2":"2 52105  53.2174 212.1160 0002059  43.0095 317.1057 15.08853472 34719","SITE":"AFETR","OBJECT_ID":"2022-029T","REV_AT_EPOCH":"3471","APOAPSIS":"541.129","EPHEMERIS_TYPE":"0","MEAN_MOTION":"15.08853472","DECAY_DATE":null,"LAUNCH_DATE":"2022-03-19","ECCENTRICITY":"0.00020590","TLE_LINE1":"1 52105U 22029T   22297.16820659 -.00000334  00000-0 -28890-5 0  9991","INCLINATION":"53.2174","TIME_SYSTEM":"UTC","MEAN_ANOMALY":"317.1057","REF_FRAME":"TEME","SEMIMAJOR_AXIS":"6917.839","CLASSIFICATION_TYPE":"U","MEAN_ELEMENT_THEORY":"SGP4","GP_ID":"216039496","PERIAPSIS":"538.280","CENTER_NAME":"EARTH","BSTAR":"-0.00000288900000"},{"COUNTRY_CODE":"US","NORAD_CAT_ID":"52106","OBJECT_NAME":"STARLINK-3670","RCS_SIZE":"LARGE","MEAN_MOTION_DOT":"0.00001599","ARG_OF_PERICENTER":"49.5938","MEAN_MOTION_DDOT":"0.0000000000000","OBJECT_TYPE":"PAYLOAD","EPOCH":"2022-10-24T04:31:18.416640","FILE":"3631438","PERIOD":"95.437","RA_OF_ASC_NODE":"222.0384","ELEMENT_SET_NO":"999","SITE":"AFETR","TLE_LINE2":"2 52106  53.2183 222.0384 0001783  49.5938 310.5210 15.08851775 34585","EPHEMERIS_TYPE":"0","MEAN_MOTION":"15.08851775","OBJECT_ID":"2022-029U","REV_AT_EPOCH":"3458","APOAPSIS":"540.943","INCLINATION":"53.2183","ECCENTRICITY":"0.00017830","TLE_LINE1":"1 52106U 22029U   22297.18840760  .00001599  00000-0  11853-3 0  9990","LAUNCH_DATE":"2022-03-19","DECAY_DATE":null,"GP_ID":"216040746","CLASSIFICATION_TYPE":"U","MEAN_ELEMENT_THEORY":"SGP4","TIME_SYSTEM":"UTC","MEAN_ANOMALY":"310.5210","REF_FRAME":"TEME","SEMIMAJOR_AXIS":"6917.844","CENTER_NAME":"EARTH","BSTAR":"0.00011853000000","PERIAPSIS":"538.476"},{"BSTAR":"0.00014430000000","CENTER_NAME":"EARTH","PERIAPSIS":"538.476","GP_ID":"216040496","SEMIMAJOR_AXIS":"6917.842","REF_FRAME":"TEME","TIME_SYSTEM":"UTC","MEAN_ANOMALY":"301.2779","MEAN_ELEMENT_THEORY":"SGP4","CLASSIFICATION_TYPE":"U","TLE_LINE1":"1 52107U 22029V   22297.16357181  .00002010  00000-0  14430-3 0  9992","ECCENTRICITY":"0.00017790","INCLINATION":"53.2172","DECAY_DATE":null,"LAUNCH_DATE":"2022-03-19","MEAN_MOTION":"15.08852584","EPHEMERIS_TYPE":"0","APOAPSIS":"540.938","OBJECT_ID":"2022-029V","REV_AT_EPOCH":"3471","TLE_LINE2":"2 52107  53.2172 212.1369 0001779  58.8387 301.2779 15.08852584 34714","SITE":"AFETR","PERIOD":"95.437","FILE":"3631438","EPOCH":"2022-10-24T03:55:32.604384","ELEMENT_SET_NO":"999","RA_OF_ASC_NODE":"212.1369","MEAN_MOTION_DDOT":"0.0000000000000","ARG_OF_PERICENTER":"58.8387","OBJECT_TYPE":"PAYLOAD","COUNTRY_CODE":"US","MEAN_MOTION_DOT":"0.00002010","RCS_SIZE":"LARGE","OBJECT_NAME":"STARLINK-3658","NORAD_CAT_ID":"52107"},{"ECCENTRICITY":"0.00018930","TLE_LINE1":"1 52108U 22029W   22297.76711199 -.00001186  00000-0 -56430-4 0  9994","INCLINATION":"53.2173","DECAY_DATE":null,"LAUNCH_DATE":"2022-03-19","EPHEMERIS_TYPE":"0","MEAN_MOTION":"15.08826832","REV_AT_EPOCH":"3480","OBJECT_ID":"2022-029W","APOAPSIS":"541.095","CENTER_NAME":"EARTH","BSTAR":"-0.00005643000000","PERIAPSIS":"538.476","GP_ID":"216073287","TIME_SYSTEM":"UTC","MEAN_ANOMALY":"303.1823","SEMIMAJOR_AXIS":"6917.921","REF_FRAME":"TEME","CLASSIFICATION_TYPE":"U","MEAN_ELEMENT_THEORY":"SGP4","MEAN_MOTION_DDOT":"0.0000000000000","ARG_OF_PERICENTER":"56.9350","OBJECT_TYPE":"PAYLOAD","COUNTRY_CODE":"US","MEAN_MOTION_DOT":"-0.00001186","NORAD_CAT_ID":"52108","OBJECT_NAME":"STARLINK-3698","RCS_SIZE":"LARGE","TLE_LINE2":"2 52108  53.2173 209.4310 0001893  56.9350 303.1823 15.08826832 34805","SITE":"AFETR","FILE":"3631857","PERIOD":"95.438","EPOCH":"2022-10-24T18:24:38.475936","RA_OF_ASC_NODE":"209.4310","ELEMENT_SET_NO":"999"},{"ARG_OF_PERICENTER":"50.7151","MEAN_MOTION_DDOT":"0.0000000000000","OBJECT_TYPE":"PAYLOAD","COUNTRY_CODE":"US","RCS_SIZE":"LARGE","NORAD_CAT_ID":"52110","OBJECT_NAME":"STARLINK-3687","MEAN_MOTION_DOT":"-0.00000856","SITE":"AFETR","TLE_LINE2":"2 52110  53.2171 209.4419 0002250  50.7151 309.4040 15.08830292 34800","EPOCH":"2022-10-24T18:19:20.728704","PERIOD":"95.438","FILE":"3631857","ELEMENT_SET_NO":"999","RA_OF_ASC_NODE":"209.4419","INCLINATION":"53.2171","TLE_LINE1":"1 52110U 22029Y   22297.76343436 -.00000856  00000-0 -35684-4 0  9993","ECCENTRICITY":"0.00022500","DECAY_DATE":null,"LAUNCH_DATE":"2022-03-19","MEAN_MOTION":"15.08830292","EPHEMERIS_TYPE":"0","APOAPSIS":"541.332","REV_AT_EPOCH":"3480","OBJECT_ID":"2022-029Y","BSTAR":"-0.00003568400000","CENTER_NAME":"EARTH","PERIAPSIS":"538.219","GP_ID":"216073038","MEAN_ELEMENT_THEORY":"SGP4","CLASSIFICATION_TYPE":"U","REF_FRAME":"TEME","SEMIMAJOR_AXIS":"6917.910","MEAN_ANOMALY":"309.4040","TIME_SYSTEM":"UTC"},{"SITE":"AFETR","TLE_LINE2":"2 52111  53.2188 209.5179 0001226  63.1171 296.9946 15.08806680 34804","EPOCH":"2022-10-24T17:58:10.131168","PERIOD":"95.440","FILE":"3631857","ELEMENT_SET_NO":"999","RA_OF_ASC_NODE":"209.5179","ARG_OF_PERICENTER":"63.1171","MEAN_MOTION_DDOT":"0.0000000000000","OBJECT_TYPE":"PAYLOAD","COUNTRY_CODE":"US","RCS_SIZE":"LARGE","NORAD_CAT_ID":"52111","OBJECT_NAME":"STARLINK-3708","MEAN_MOTION_DOT":"-0.00004865","BSTAR":"-0.00028807000000","CENTER_NAME":"EARTH","PERIAPSIS":"538.999","GP_ID":"216072286","MEAN_ELEMENT_THEORY":"SGP4","CLASSIFICATION_TYPE":"U","SEMIMAJOR_AXIS":"6917.982","REF_FRAME":"TEME","MEAN_ANOMALY":"296.9946","TIME_SYSTEM":"UTC","INCLINATION":"53.2188","TLE_LINE1":"1 52111U 22029Z   22297.74872837 -.00004865  00000-0 -28807-3 0  9996","ECCENTRICITY":"0.00012260","DECAY_DATE":null,"LAUNCH_DATE":"2022-03-19","MEAN_MOTION":"15.08806680","EPHEMERIS_TYPE":"0","APOAPSIS":"540.695","REV_AT_EPOCH":"3480","OBJECT_ID":"2022-029Z"},{"COUNTRY_CODE":"US","RCS_SIZE":"LARGE","OBJECT_NAME":"STARLINK-3734","NORAD_CAT_ID":"52112","MEAN_MOTION_DOT":"-0.00004978","ARG_OF_PERICENTER":"60.4203","MEAN_MOTION_DDOT":"0.0000000000000","OBJECT_TYPE":"PAYLOAD","EPOCH":"2022-10-24T18:08:44.247552","PERIOD":"95.438","FILE":"3631857","ELEMENT_SET_NO":"999","RA_OF_ASC_NODE":"209.4768","SITE":"AFETR","TLE_LINE2":"2 52112  53.2165 209.4768 0001731  60.4203 299.6961 15.08831947 34801","MEAN_MOTION":"15.08831947","EPHEMERIS_TYPE":"0","APOAPSIS":"540.967","OBJECT_ID":"2022-029AA","REV_AT_EPOCH":"3480","INCLINATION":"53.2165","TLE_LINE1":"1 52112U 22029AA  22297.75606768 -.00004978  00000-0 -29493-3 0  9993","ECCENTRICITY":"0.00017310","LAUNCH_DATE":"2022-03-19","DECAY_DATE":null,"GP_ID":"216072536","MEAN_ELEMENT_THEORY":"SGP4","CLASSIFICATION_TYPE":"U","REF_FRAME":"TEME","SEMIMAJOR_AXIS":"6917.905","TIME_SYSTEM":"UTC","MEAN_ANOMALY":"299.6961","BSTAR":"-0.00029493000000","CENTER_NAME":"EARTH","PERIAPSIS":"538.573"},{"TLE_LINE2":"2 52113  53.2185 210.7322 0001908  52.5731 307.5435 15.08835176 34767","SITE":"AFETR","RA_OF_ASC_NODE":"210.7322","ELEMENT_SET_NO":"999","FILE":"3631438","PERIOD":"95.438","EPOCH":"2022-10-24T11:25:59.321856","OBJECT_TYPE":"PAYLOAD","MEAN_MOTION_DDOT":"0.0000000000000","ARG_OF_PERICENTER":"52.5731","MEAN_MOTION_DOT":"-0.00000247","NORAD_CAT_ID":"52113","OBJECT_NAME":"STARLINK-3736","RCS_SIZE":"LARGE","COUNTRY_CODE":"US","PERIAPSIS":"538.440","CENTER_NAME":"EARTH","BSTAR":"0.00000260680000","TIME_SYSTEM":"UTC","MEAN_ANOMALY":"307.5435","REF_FRAME":"TEME","SEMIMAJOR_AXIS":"6917.895","CLASSIFICATION_TYPE":"U","MEAN_ELEMENT_THEORY":"SGP4","GP_ID":"216039748","DECAY_DATE":null,"LAUNCH_DATE":"2022-03-19","ECCENTRICITY":"0.00019080","TLE_LINE1":"1 52113U 22029AB  22297.47638104 -.00000247  00000-0  26068-5 0  9993","INCLINATION":"53.2185","REV_AT_EPOCH":"3476","OBJECT_ID":"2022-029AB","APOAPSIS":"541.080","EPHEMERIS_TYPE":"0","MEAN_MOTION":"15.08835176"},{"GP_ID":"216073538","CLASSIFICATION_TYPE":"U","MEAN_ELEMENT_THEORY":"SGP4","TIME_SYSTEM":"UTC","MEAN_ANOMALY":"307.8162","SEMIMAJOR_AXIS":"6917.917","REF_FRAME":"TEME","CENTER_NAME":"EARTH","BSTAR":"-0.00088162000000","PERIAPSIS":"538.639","EPHEMERIS_TYPE":"0","MEAN_MOTION":"15.08827860","OBJECT_ID":"2022-029AC","REV_AT_EPOCH":"3480","APOAPSIS":"540.926","INCLINATION":"53.2174","ECCENTRICITY":"0.00016530","TLE_LINE1":"1 52114U 22029AC  22297.75238162 -.00014287  00000-0 -88162-3 0  9996","LAUNCH_DATE":"2022-03-19","DECAY_DATE":null,"EPOCH":"2022-10-24T18:03:25.771968","FILE":"3631857","PERIOD":"95.438","RA_OF_ASC_NODE":"209.4994","ELEMENT_SET_NO":"999","SITE":"AFETR","TLE_LINE2":"2 52114  53.2174 209.4994 0001653  52.2980 307.8162 15.08827860 34802","COUNTRY_CODE":"US","OBJECT_NAME":"STARLINK-3737","NORAD_CAT_ID":"52114","RCS_SIZE":"LARGE","MEAN_MOTION_DOT":"-0.00014287","ARG_OF_PERICENTER":"52.2980","MEAN_MOTION_DDOT":"0.0000000000000","OBJECT_TYPE":"PAYLOAD"}];
